[{"OBJECT_NAME":"STARLINK-36126","OBJECT_ID":"2025-281U","EPOCH":"2026-03-08T04:53:44.439648","MEAN_MOTION":15.27614315,"ECCENTRICITY":0.00011424,"INCLINATION":43,"RA_OF_ASC_NODE":352.2644,"ARG_OF_PERICENTER":275.0337,"MEAN_ANOMALY":85.0384,"EPHEMERIS_TYPE":0,"CLASSIFICATION_TYPE":"U","NORAD_CAT_ID":66866,"ELEMENT_SET_NO":999,"REV_AT_EPOCH":1594,"BSTAR":0.00079339144,"MEAN_MOTION_DOT":0.00021657,"MEAN_MOTION_DDOT":0},{"OBJECT_NAME":"TRANSPORTER-1 OBJECT M","OBJECT_ID":"2021-006M","EPOCH":"2026-03-09T22:05:37.843296","MEAN_MOTION":15.3227845,"ECCENTRICITY":0.00102759,"INCLINATION":97.2377,"RA_OF_ASC_NODE":116.7915,"ARG_OF_PERICENTER":187.5492,"MEAN_ANOMALY":172.5597,"EPHEMERIS_TYPE":0,"CLASSIFICATION_TYPE":"U","NORAD_CAT_ID":47424,"ELEMENT_SET_NO":999,"REV_AT_EPOCH":28439,"BSTAR":0.00023985652,"MEAN_MOTION_DOT":7.411e-5,"MEAN_MOTION_DDOT":0}]
